start=new Date('2021-10-09T00:00:00.000Z').valueOf();
sats=[{"LAUNCH_DATE":"2021-04-07","MEAN_MOTION_DDOT":"0.0000000000000","REV_AT_EPOCH":"2937","EPOCH":"2021-10-08T04:57:34.140960","DECAY_DATE":null,"INCLINATION":"53.0594","GP_ID":"186555947","OBJECT_TYPE":"PAYLOAD","RA_OF_ASC_NODE":"204.8150","MEAN_MOTION":"15.06399277","COUNTRY_CODE":"US","PERIAPSIS":"546.129","RCS_SIZE":"LARGE","TLE_LINE1":"1 48111U 21027V   21281.20664515  .00001465  00000-0  11723-3 0  9993","TLE_LINE2":"2 48111  53.0594 204.8150 0001569  70.4239 289.6920 15.06399277 29375","SITE":"AFETR","FILE":"3151292","MEAN_ELEMENT_THEORY":"SGP4","SEMIMAJOR_AXIS":"6925.351","EPHEMERIS_TYPE":"0","CENTER_NAME":"EARTH","MEAN_ANOMALY":"289.6920","ELEMENT_SET_NO":"999","TIME_SYSTEM":"UTC","OBJECT_ID":"2021-027V","BSTAR":"0.00011723000000","ECCENTRICITY":"0.00015690","CLASSIFICATION_TYPE":"U","ARG_OF_PERICENTER":"70.4239","PERIOD":"95.592","MEAN_MOTION_DOT":"0.00001465","REF_FRAME":"TEME","NORAD_CAT_ID":"48111","OBJECT_NAME":"STARLINK-2448","APOAPSIS":"548.302"},{"CLASSIFICATION_TYPE":"U","OBJECT_ID":"2021-027W","ECCENTRICITY":"0.00017070","BSTAR":"0.00017355000000","REF_FRAME":"TEME","NORAD_CAT_ID":"48112","APOAPSIS":"548.355","OBJECT_NAME":"STARLINK-2449","PERIOD":"95.591","ARG_OF_PERICENTER":"69.1339","MEAN_MOTION_DOT":"0.00002305","CENTER_NAME":"EARTH","EPHEMERIS_TYPE":"0","TIME_SYSTEM":"UTC","ELEMENT_SET_NO":"999","MEAN_ANOMALY":"290.9833","TLE_LINE1":"1 48112U 21027W   21281.24764906  .00002305  00000-0  17355-3 0  9994","RCS_SIZE":"LARGE","PERIAPSIS":"545.991","TLE_LINE2":"2 48112  53.0575 219.6386 0001707  69.1339 290.9833 15.06413215 29164","SITE":"AFETR","SEMIMAJOR_AXIS":"6925.308","MEAN_ELEMENT_THEORY":"SGP4","FILE":"3151292","DECAY_DATE":null,"EPOCH":"2021-10-08T05:56:36.878784","GP_ID":"186556197","INCLINATION":"53.0575","LAUNCH_DATE":"2021-04-07","REV_AT_EPOCH":"2916","MEAN_MOTION_DDOT":"0.0000000000000","RA_OF_ASC_NODE":"219.6386","MEAN_MOTION":"15.06413215","COUNTRY_CODE":"US","OBJECT_TYPE":"PAYLOAD"},{"CLASSIFICATION_TYPE":"U","OBJECT_ID":"2021-027X","BSTAR":"0.00005068300000","ECCENTRICITY":"0.00017430","NORAD_CAT_ID":"48113","REF_FRAME":"TEME","OBJECT_NAME":"STARLINK-2450","APOAPSIS":"548.430","PERIOD":"95.592","ARG_OF_PERICENTER":"60.9467","MEAN_MOTION_DOT":"0.00000473","EPHEMERIS_TYPE":"0","CENTER_NAME":"EARTH","ELEMENT_SET_NO":"999","TIME_SYSTEM":"UTC","MEAN_ANOMALY":"299.1696","PERIAPSIS":"546.016","RCS_SIZE":"LARGE","TLE_LINE1":"1 48113U 21027X   21281.53104003  .00000473  00000-0  50683-4 0  9999","TLE_LINE2":"2 48113  53.0553 213.3631 0001743  60.9467 299.1696 15.06397019 29268","SITE":"AFETR","SEMIMAJOR_AXIS":"6925.358","MEAN_ELEMENT_THEORY":"SGP4","FILE":"3152020","EPOCH":"2021-10-08T12:44:41.858592","DECAY_DATE":null,"INCLINATION":"53.0553","GP_ID":"186597031","LAUNCH_DATE":"2021-04-07","MEAN_MOTION_DDOT":"0.0000000000000","REV_AT_EPOCH":"2926","RA_OF_ASC_NODE":"213.3631","MEAN_MOTION":"15.06397019","COUNTRY_CODE":"US","OBJECT_TYPE":"PAYLOAD"},{"MEAN_MOTION_DOT":"0.00000065","PERIOD":"95.592","ARG_OF_PERICENTER":"58.9600","OBJECT_NAME":"STARLINK-2451","APOAPSIS":"548.514","NORAD_CAT_ID":"48114","REF_FRAME":"TEME","BSTAR":"0.00002325800000","ECCENTRICITY":"0.00018760","OBJECT_ID":"2021-027Y","CLASSIFICATION_TYPE":"U","MEAN_ANOMALY":"301.1573","ELEMENT_SET_NO":"999","TIME_SYSTEM":"UTC","EPHEMERIS_TYPE":"0","CENTER_NAME":"EARTH","MEAN_ELEMENT_THEORY":"SGP4","FILE":"3151583","SEMIMAJOR_AXIS":"6925.349","TLE_LINE2":"2 48114  53.0564 208.5417 0001876  58.9600 301.1573 15.06399709 28942","SITE":"AFETR","PERIAPSIS":"545.915","RCS_SIZE":"LARGE","TLE_LINE1":"1 48114U 21027Y   21281.49184919  .00000065  00000-0  23258-4 0  9994","OBJECT_TYPE":"PAYLOAD","COUNTRY_CODE":"US","RA_OF_ASC_NODE":"208.5417","MEAN_MOTION":"15.06399709","MEAN_MOTION_DDOT":"0.0000000000000","REV_AT_EPOCH":"2894","LAUNCH_DATE":"2021-04-07","INCLINATION":"53.0564","GP_ID":"186562756","EPOCH":"2021-10-08T11:48:15.770016","DECAY_DATE":null},{"CLASSIFICATION_TYPE":"U","ECCENTRICITY":"0.00018130","BSTAR":"0.00014721000000","OBJECT_ID":"2021-027Z","APOAPSIS":"548.440","OBJECT_NAME":"STARLINK-2452","NORAD_CAT_ID":"48115","REF_FRAME":"TEME","MEAN_MOTION_DOT":"0.00001912","ARG_OF_PERICENTER":"63.4125","PERIOD":"95.592","CENTER_NAME":"EARTH","EPHEMERIS_TYPE":"0","TIME_SYSTEM":"UTC","ELEMENT_SET_NO":"999","MEAN_ANOMALY":"296.7050","TLE_LINE2":"2 48115  53.0534 203.4108 0001813  63.4125 296.7050 15.06409558 29017","SITE":"AFETR","TLE_LINE1":"1 48115U 21027Z   21281.51994344  .00001912  00000-0  14721-3 0  9995","RCS_SIZE":"LARGE","PERIAPSIS":"545.929","SEMIMAJOR_AXIS":"6925.319","MEAN_ELEMENT_THEORY":"SGP4","FILE":"3151523","GP_ID":"186563291","INCLINATION":"53.0534","DECAY_DATE":null,"EPOCH":"2021-10-08T12:28:43.113216","REV_AT_EPOCH":"2901","MEAN_MOTION_DDOT":"0.0000000000000","LAUNCH_DATE":"2021-04-07","COUNTRY_CODE":"US","RA_OF_ASC_NODE":"203.4108","MEAN_MOTION":"15.06409558","OBJECT_TYPE":"PAYLOAD"},{"RA_OF_ASC_NODE":"213.3888","MEAN_MOTION":"15.06403183","COUNTRY_CODE":"US","OBJECT_TYPE":"PAYLOAD","EPOCH":"2021-10-08T12:39:22.829184","DECAY_DATE":null,"INCLINATION":"53.0568","GP_ID":"186556697","LAUNCH_DATE":"2021-04-07","MEAN_MOTION_DDOT":"0.0000000000000","REV_AT_EPOCH":"2927","SEMIMAJOR_AXIS":"6925.339","FILE":"3151292","MEAN_ELEMENT_THEORY":"SGP4","PERIAPSIS":"546.107","RCS_SIZE":"LARGE","TLE_LINE1":"1 48116U 21027AA  21281.52734756  .00000725  00000-0  67583-4 0  9992","TLE_LINE2":"2 48116  53.0568 213.3888 0001584  68.1359 291.9798 15.06403183 29278","SITE":"AFETR","ELEMENT_SET_NO":"999","TIME_SYSTEM":"UTC","MEAN_ANOMALY":"291.9798","EPHEMERIS_TYPE":"0","CENTER_NAME":"EARTH","REF_FRAME":"TEME","NORAD_CAT_ID":"48116","OBJECT_NAME":"STARLINK-2454","APOAPSIS":"548.301","PERIOD":"95.592","ARG_OF_PERICENTER":"68.1359","MEAN_MOTION_DOT":"0.00000725","CLASSIFICATION_TYPE":"U","OBJECT_ID":"2021-027AA","BSTAR":"0.00006758300000","ECCENTRICITY":"0.00015840"},{"MEAN_ANOMALY":"289.6421","TIME_SYSTEM":"UTC","ELEMENT_SET_NO":"999","CENTER_NAME":"EARTH","EPHEMERIS_TYPE":"0","MEAN_MOTION_DOT":"0.00000592","PERIOD":"95.592","ARG_OF_PERICENTER":"70.4766","APOAPSIS":"548.488","OBJECT_NAME":"STARLINK-2455","REF_FRAME":"TEME","NORAD_CAT_ID":"48117","ECCENTRICITY":"0.00018340","BSTAR":"0.00005862100000","OBJECT_ID":"2021-027AB","CLASSIFICATION_TYPE":"U","OBJECT_TYPE":"PAYLOAD","COUNTRY_CODE":"US","RA_OF_ASC_NODE":"191.7120","MEAN_MOTION":"15.06398531","REV_AT_EPOCH":"2961","MEAN_MOTION_DDOT":"0.0000000000000","LAUNCH_DATE":"2021-04-07","GP_ID":"186596531","INCLINATION":"53.0544","DECAY_DATE":null,"EPOCH":"2021-10-08T21:32:48.933312","FILE":"3152020","MEAN_ELEMENT_THEORY":"SGP4","SEMIMAJOR_AXIS":"6925.353","SITE":"AFETR","TLE_LINE2":"2 48117  53.0544 191.7120 0001834  70.4766 289.6421 15.06398531 29612","TLE_LINE1":"1 48117U 21027AB  21281.89778858  .00000592  00000-0  58621-4 0  9999","RCS_SIZE":"LARGE","PERIAPSIS":"545.948"},{"CENTER_NAME":"EARTH","EPHEMERIS_TYPE":"0","MEAN_ANOMALY":"287.9570","TIME_SYSTEM":"UTC","ELEMENT_SET_NO":"999","ECCENTRICITY":"0.00017470","BSTAR":"0.00011282000000","OBJECT_ID":"2021-027AC","CLASSIFICATION_TYPE":"U","MEAN_MOTION_DOT":"0.00001399","ARG_OF_PERICENTER":"72.1610","PERIOD":"95.592","APOAPSIS":"548.427","OBJECT_NAME":"STARLINK-2458","NORAD_CAT_ID":"48118","REF_FRAME":"TEME","REV_AT_EPOCH":"2960","MEAN_MOTION_DDOT":"0.0000000000000","LAUNCH_DATE":"2021-04-07","GP_ID":"186595283","INCLINATION":"53.0548","DECAY_DATE":null,"EPOCH":"2021-10-08T20:13:11.590464","OBJECT_TYPE":"PAYLOAD","COUNTRY_CODE":"US","RA_OF_ASC_NODE":"191.9584","MEAN_MOTION":"15.06398940","TLE_LINE2":"2 48118  53.0548 191.9584 0001747  72.1610 287.9570 15.06398940 29602","SITE":"AFETR","TLE_LINE1":"1 48118U 21027AC  21281.84249526  .00001399  00000-0  11282-3 0  9997","RCS_SIZE":"LARGE","PERIAPSIS":"546.007","MEAN_ELEMENT_THEORY":"SGP4","FILE":"3152020","SEMIMAJOR_AXIS":"6925.352"},{"PERIOD":"95.592","ARG_OF_PERICENTER":"52.6441","MEAN_MOTION_DOT":"0.00001884","NORAD_CAT_ID":"48119","REF_FRAME":"TEME","OBJECT_NAME":"STARLINK-2459","APOAPSIS":"548.722","OBJECT_ID":"2021-027AD","BSTAR":"0.00014535000000","ECCENTRICITY":"0.00022010","CLASSIFICATION_TYPE":"U","MEAN_ANOMALY":"307.4748","ELEMENT_SET_NO":"999","TIME_SYSTEM":"UTC","EPHEMERIS_TYPE":"0","CENTER_NAME":"EARTH","FILE":"3151292","MEAN_ELEMENT_THEORY":"SGP4","SEMIMAJOR_AXIS":"6925.333","PERIAPSIS":"545.674","RCS_SIZE":"LARGE","TLE_LINE1":"1 48119U 21027AD  21281.17534326  .00001884  00000-0  14535-3 0  9992","SITE":"AFETR","TLE_LINE2":"2 48119  53.0547 194.9545 0002201  52.6441 307.4748 15.06405035 29499","OBJECT_TYPE":"PAYLOAD","MEAN_MOTION":"15.06405035","RA_OF_ASC_NODE":"194.9545","COUNTRY_CODE":"US","LAUNCH_DATE":"2021-04-07","MEAN_MOTION_DDOT":"0.0000000000000","REV_AT_EPOCH":"2949","EPOCH":"2021-10-08T04:12:29.657664","DECAY_DATE":null,"INCLINATION":"53.0547","GP_ID":"186555948"},{"SEMIMAJOR_AXIS":"6925.362","FILE":"3151292","MEAN_ELEMENT_THEORY":"SGP4","TLE_LINE1":"1 48120U 21027AE  21281.51260422  .00000881  00000-0  78041-4 0  9994","PERIAPSIS":"545.969","RCS_SIZE":"LARGE","SITE":"AFETR","TLE_LINE2":"2 48120  53.0555 213.4431 0001817  64.2782 295.8394 15.06395594 29282","RA_OF_ASC_NODE":"213.4431","MEAN_MOTION":"15.06395594","COUNTRY_CODE":"US","OBJECT_TYPE":"PAYLOAD","DECAY_DATE":null,"EPOCH":"2021-10-08T12:18:09.004608","GP_ID":"186556198","INCLINATION":"53.0555","LAUNCH_DATE":"2021-04-07","REV_AT_EPOCH":"2928","MEAN_MOTION_DDOT":"0.0000000000000","REF_FRAME":"TEME","NORAD_CAT_ID":"48120","APOAPSIS":"548.485","OBJECT_NAME":"STARLINK-2460","ARG_OF_PERICENTER":"64.2782","PERIOD":"95.592","MEAN_MOTION_DOT":"0.00000881","CLASSIFICATION_TYPE":"U","OBJECT_ID":"2021-027AE","ECCENTRICITY":"0.00018170","BSTAR":"0.00007804100000","TIME_SYSTEM":"UTC","ELEMENT_SET_NO":"999","MEAN_ANOMALY":"295.8394","CENTER_NAME":"EARTH","EPHEMERIS_TYPE":"0"}];
